SL-3 R/B                
1 13403U 82079B   25342.80599116  .00008547  00000+0  35324-3 0  9995
2 13403  81.1473 300.2973 0026931 111.6558 248.7547 15.23518986363859
SL-14 R/B               
1 13553U 82092B   25342.77720176  .00000963  00000+0  10568-3 0  9991
2 13553  82.5688 226.4175 0018978 241.1614 183.8639 14.86550328315420
SL-3 R/B                
1 13819U 83010B   25342.81719433  .00018550  00000+0  41346-3 0  9995
2 13819  81.1042 113.4063 0017379   4.8116 355.3290 15.43297612343912
SL-3 R/B                
1 14208U 83075B   25342.81355094  .00014840  00000+0  42186-3 0  9999
2 14208  97.6107 339.1652 0022296 189.4899 170.5926 15.36014626316199
COSMOS 1536             
1 14699U 84013A   25342.86288735  .00008767  00000+0  37665-3 0  9995
2 14699  82.5455 198.0093 0013365 240.7047 119.2854 15.22454521258794
SL-14 R/B               
1 14820U 84027B   25342.71701230  .00001042  00000+0  11673-3 0  9990
2 14820  82.5410 330.3290 0016387 275.4454  84.4893 14.85868463234124
SL-8 R/B                
1 15483U 85006B   25342.65487534  .00000541  00000+0  18823-3 0  9992
2 15483  74.0466  68.6501 0018501   1.9238 105.2372 14.37717971140949
SL-12 R/B(2)            
1 15772U 85042D   25342.61731427  .00000343  00000+0  17558-3 0  9996
2 15772  71.1085 280.1287 0037680 267.5734 265.5196 14.21950284101442
SL-14 R/B               
1 15945U 85069B   25342.79680358  .00001176  00000+0  13038-3 0  9996
2 15945  82.5264 110.4095 0019934 130.7470 229.5481 14.86317985159335
SL-16 R/B               
1 16182U 85097B   25342.41044405  .00000093  00000+0  70625-4 0  9990
2 16182  71.0029 332.7177 0006414  17.7213  89.1536 14.16581970 74303
SL-14 R/B               
1 16496U 86006B   25342.72883611  .00001250  00000+0  13090-3 0  9991
2 16496  82.5265 345.3256 0075836 213.2545 146.3896 14.86664604135691
COSMOS 1743             
1 16719U 86034A   25342.78586985  .00035194  00000+0  58617-3 0  9998
2 16719  82.5345 168.6978 0004713 271.1164  88.9548 15.51836813166124
