CCSDS_OMM_VERS = 2.0
CREATION_DATE  = 
ORIGINATOR     = 

OBJECT_NAME    = SL-3 R/B
OBJECT_ID      = 1982-079B
CENTER_NAME    = EARTH
REF_FRAME      = TEME
TIME_SYSTEM    = UTC
MEAN_ELEMENT_THEORY = SGP/SGP4

EPOCH          = 2025-12-08T19:20:37.636224
MEAN_MOTION    = 15.23518986
ECCENTRICITY   = .0026931
INCLINATION    = 81.1473
RA_OF_ASC_NODE = 300.2973
ARG_OF_PERICENTER = 111.6558
MEAN_ANOMALY   = 248.7547

EPHEMERIS_TYPE = 0
CLASSIFICATION_TYPE = U
NORAD_CAT_ID   = 13403
ELEMENT_SET_NO = 999
REV_AT_EPOCH   = 36385
BSTAR          = .35324E-3
MEAN_MOTION_DOT = .8547E-4
MEAN_MOTION_DDOT = 0

CCSDS_OMM_VERS = 2.0
CREATION_DATE  = 
ORIGINATOR     = 

OBJECT_NAME    = SL-14 R/B
OBJECT_ID      = 1982-092B
CENTER_NAME    = EARTH
REF_FRAME      = TEME
TIME_SYSTEM    = UTC
MEAN_ELEMENT_THEORY = SGP/SGP4

EPOCH          = 2025-12-08T18:39:10.232064
MEAN_MOTION    = 14.86550328
ECCENTRICITY   = .0018978
INCLINATION    = 82.5688
RA_OF_ASC_NODE = 226.4175
ARG_OF_PERICENTER = 241.1614
MEAN_ANOMALY   = 183.8639

EPHEMERIS_TYPE = 0
CLASSIFICATION_TYPE = U
NORAD_CAT_ID   = 13553
ELEMENT_SET_NO = 999
REV_AT_EPOCH   = 31542
BSTAR          = .10568E-3
MEAN_MOTION_DOT = .963E-5
MEAN_MOTION_DDOT = 0

CCSDS_OMM_VERS = 2.0
CREATION_DATE  = 
ORIGINATOR     = 

OBJECT_NAME    = SL-3 R/B
OBJECT_ID      = 1983-010B
CENTER_NAME    = EARTH
REF_FRAME      = TEME
TIME_SYSTEM    = UTC
MEAN_ELEMENT_THEORY = SGP/SGP4

EPOCH          = 2025-12-08T19:36:45.590112
MEAN_MOTION    = 15.43297612
ECCENTRICITY   = .0017379
INCLINATION    = 81.1042
RA_OF_ASC_NODE = 113.4063
ARG_OF_PERICENTER = 4.8116
MEAN_ANOMALY   = 355.3290

EPHEMERIS_TYPE = 0
CLASSIFICATION_TYPE = U
NORAD_CAT_ID   = 13819
ELEMENT_SET_NO = 999
REV_AT_EPOCH   = 34391
BSTAR          = .41346E-3
MEAN_MOTION_DOT = .1855E-3
MEAN_MOTION_DDOT = 0

CCSDS_OMM_VERS = 2.0
CREATION_DATE  = 
ORIGINATOR     = 

OBJECT_NAME    = SL-3 R/B
OBJECT_ID      = 1983-075B
CENTER_NAME    = EARTH
REF_FRAME      = TEME
TIME_SYSTEM    = UTC
MEAN_ELEMENT_THEORY = SGP/SGP4

EPOCH          = 2025-12-08T19:31:30.801216
MEAN_MOTION    = 15.36014626
ECCENTRICITY   = .0022296
INCLINATION    = 97.6107
RA_OF_ASC_NODE = 339.1652
ARG_OF_PERICENTER = 189.4899
MEAN_ANOMALY   = 170.5926

EPHEMERIS_TYPE = 0
CLASSIFICATION_TYPE = U
NORAD_CAT_ID   = 14208
ELEMENT_SET_NO = 999
REV_AT_EPOCH   = 31619
BSTAR          = .42186E-3
MEAN_MOTION_DOT = .1484E-3
MEAN_MOTION_DDOT = 0

CCSDS_OMM_VERS = 2.0
CREATION_DATE  = 
ORIGINATOR     = 

OBJECT_NAME    = COSMOS 1536
OBJECT_ID      = 1984-013A
CENTER_NAME    = EARTH
REF_FRAME      = TEME
TIME_SYSTEM    = UTC
MEAN_ELEMENT_THEORY = SGP/SGP4

EPOCH          = 2025-12-08T20:42:33.467040
MEAN_MOTION    = 15.22454521
ECCENTRICITY   = .0013365
INCLINATION    = 82.5455
RA_OF_ASC_NODE = 198.0093
ARG_OF_PERICENTER = 240.7047
MEAN_ANOMALY   = 119.2854

EPHEMERIS_TYPE = 0
CLASSIFICATION_TYPE = U
NORAD_CAT_ID   = 14699
ELEMENT_SET_NO = 999
REV_AT_EPOCH   = 25879
BSTAR          = .37665E-3
MEAN_MOTION_DOT = .8767E-4
MEAN_MOTION_DDOT = 0

CCSDS_OMM_VERS = 2.0
CREATION_DATE  = 
ORIGINATOR     = 

OBJECT_NAME    = SL-14 R/B
OBJECT_ID      = 1984-027B
CENTER_NAME    = EARTH
REF_FRAME      = TEME
TIME_SYSTEM    = UTC
MEAN_ELEMENT_THEORY = SGP/SGP4

EPOCH          = 2025-12-08T17:12:29.862720
MEAN_MOTION    = 14.85868463
ECCENTRICITY   = .0016387
INCLINATION    = 82.5410
RA_OF_ASC_NODE = 330.3290
ARG_OF_PERICENTER = 275.4454
MEAN_ANOMALY   = 84.4893

EPHEMERIS_TYPE = 0
CLASSIFICATION_TYPE = U
NORAD_CAT_ID   = 14820
ELEMENT_SET_NO = 999
REV_AT_EPOCH   = 23412
BSTAR          = .11673E-3
MEAN_MOTION_DOT = .1042E-4
MEAN_MOTION_DDOT = 0

CCSDS_OMM_VERS = 2.0
CREATION_DATE  = 
ORIGINATOR     = 

OBJECT_NAME    = SL-8 R/B
OBJECT_ID      = 1985-006B
CENTER_NAME    = EARTH
REF_FRAME      = TEME
TIME_SYSTEM    = UTC
MEAN_ELEMENT_THEORY = SGP/SGP4

EPOCH          = 2025-12-08T15:43:01.229376
MEAN_MOTION    = 14.37717971
ECCENTRICITY   = .0018501
INCLINATION    = 74.0466
RA_OF_ASC_NODE = 68.6501
ARG_OF_PERICENTER = 1.9238
MEAN_ANOMALY   = 105.2372

EPHEMERIS_TYPE = 0
CLASSIFICATION_TYPE = U
NORAD_CAT_ID   = 15483
ELEMENT_SET_NO = 999
REV_AT_EPOCH   = 14094
BSTAR          = .18823E-3
MEAN_MOTION_DOT = .541E-5
MEAN_MOTION_DDOT = 0

CCSDS_OMM_VERS = 2.0
CREATION_DATE  = 
ORIGINATOR     = 

OBJECT_NAME    = SL-12 R/B(2)
OBJECT_ID      = 1985-042D
CENTER_NAME    = EARTH
REF_FRAME      = TEME
TIME_SYSTEM    = UTC
MEAN_ELEMENT_THEORY = SGP/SGP4

EPOCH          = 2025-12-08T14:48:55.952928
MEAN_MOTION    = 14.21950284
ECCENTRICITY   = .003768
INCLINATION    = 71.1085
RA_OF_ASC_NODE = 280.1287
ARG_OF_PERICENTER = 267.5734
MEAN_ANOMALY   = 265.5196

EPHEMERIS_TYPE = 0
CLASSIFICATION_TYPE = U
NORAD_CAT_ID   = 15772
ELEMENT_SET_NO = 999
REV_AT_EPOCH   = 10144
BSTAR          = .17558E-3
MEAN_MOTION_DOT = .343E-5
MEAN_MOTION_DDOT = 0

CCSDS_OMM_VERS = 2.0
CREATION_DATE  = 
ORIGINATOR     = 

OBJECT_NAME    = SL-14 R/B
OBJECT_ID      = 1985-069B
CENTER_NAME    = EARTH
REF_FRAME      = TEME
TIME_SYSTEM    = UTC
MEAN_ELEMENT_THEORY = SGP/SGP4

EPOCH          = 2025-12-08T19:07:23.829312
MEAN_MOTION    = 14.86317985
ECCENTRICITY   = .0019934
INCLINATION    = 82.5264
RA_OF_ASC_NODE = 110.4095
ARG_OF_PERICENTER = 130.7470
MEAN_ANOMALY   = 229.5481

EPHEMERIS_TYPE = 0
CLASSIFICATION_TYPE = U
NORAD_CAT_ID   = 15945
ELEMENT_SET_NO = 999
REV_AT_EPOCH   = 15933
BSTAR          = .13038E-3
MEAN_MOTION_DOT = .1176E-4
MEAN_MOTION_DDOT = 0

CCSDS_OMM_VERS = 2.0
CREATION_DATE  = 
ORIGINATOR     = 

OBJECT_NAME    = SL-16 R/B
OBJECT_ID      = 1985-097B
CENTER_NAME    = EARTH
REF_FRAME      = TEME
TIME_SYSTEM    = UTC
MEAN_ELEMENT_THEORY = SGP/SGP4

EPOCH          = 2025-12-08T09:51:02.365920
MEAN_MOTION    = 14.16581970
ECCENTRICITY   = .00064149
INCLINATION    = 71.0029
RA_OF_ASC_NODE = 332.7177
ARG_OF_PERICENTER = 17.7213
MEAN_ANOMALY   = 89.1536

EPHEMERIS_TYPE = 0
CLASSIFICATION_TYPE = U
NORAD_CAT_ID   = 16182
ELEMENT_SET_NO = 999
REV_AT_EPOCH   = 7430
BSTAR          = .70624552E-4
MEAN_MOTION_DOT = .93E-6
MEAN_MOTION_DDOT = 0

CCSDS_OMM_VERS = 2.0
CREATION_DATE  = 
ORIGINATOR     = 

OBJECT_NAME    = SL-14 R/B
OBJECT_ID      = 1986-006B
CENTER_NAME    = EARTH
REF_FRAME      = TEME
TIME_SYSTEM    = UTC
MEAN_ELEMENT_THEORY = SGP/SGP4

EPOCH          = 2025-12-08T17:29:31.439904
MEAN_MOTION    = 14.86664604
ECCENTRICITY   = .0075836
INCLINATION    = 82.5265
RA_OF_ASC_NODE = 345.3256
ARG_OF_PERICENTER = 213.2545
MEAN_ANOMALY   = 146.3896

EPHEMERIS_TYPE = 0
CLASSIFICATION_TYPE = U
NORAD_CAT_ID   = 16496
ELEMENT_SET_NO = 999
REV_AT_EPOCH   = 13569
BSTAR          = .1309E-3
MEAN_MOTION_DOT = .125E-4
MEAN_MOTION_DDOT = 0

CCSDS_OMM_VERS = 2.0
CREATION_DATE  = 
ORIGINATOR     = 

OBJECT_NAME    = COSMOS 1743
OBJECT_ID      = 1986-034A
CENTER_NAME    = EARTH
REF_FRAME      = TEME
TIME_SYSTEM    = UTC
MEAN_ELEMENT_THEORY = SGP/SGP4

EPOCH          = 2025-12-08T18:51:39.155040
MEAN_MOTION    = 15.51836813
ECCENTRICITY   = .0004713
INCLINATION    = 82.5345
RA_OF_ASC_NODE = 168.6978
ARG_OF_PERICENTER = 271.1164
MEAN_ANOMALY   = 88.9548

EPHEMERIS_TYPE = 0
CLASSIFICATION_TYPE = U
NORAD_CAT_ID   = 16719
ELEMENT_SET_NO = 999
REV_AT_EPOCH   = 16612
BSTAR          = .58617E-3
MEAN_MOTION_DOT = .35194E-3
MEAN_MOTION_DDOT = 0

